{
  "type": "FeatureCollection",
  "features": [
    {
      "type": "Feature",
      "properties": {
        "norad_id": 41859,
        "name": "GSAT0207 (GALILEO 15)",
        "group": "gnss",
        "lat": -54.581385333709726,
        "lon": 30.332259548805457,
        "alt_km": 23223.795513859375,
        "timestamp": "2025-12-04T10:51:50.348830+00:00",
        "meta_object_name": "GSAT0207 (GALILEO 15)",
        "meta_object_id": "2016-069A",
        "meta_epoch": "2025-12-03T09:54:53.472960",
        "meta_mean_motion": 1.70474233,
        "meta_eccentricity": 0.00021356,
        "meta_inclination": 55.3776,
        "meta_ra_of_asc_node": 106.5086,
        "meta_arg_of_pericenter": 326.0085,
        "meta_mean_anomaly": 33.9336,
        "meta_ephemeris_type": 0,
        "meta_classification_type": "U",
        "meta_norad_cat_id": 41859,
        "meta_element_set_no": 999,
        "meta_rev_at_epoch": 5606,
        "meta_bstar": 0,
        "meta_mean_motion_dot": 2e-07,
        "meta_mean_motion_ddot": 0,
        "tle_line1": "1 41859U 16069A   25337.41311890  .00000020  00000+0  00000+0 0  9996",
        "tle_line2": "2 41859  55.3776 106.5086 0002135 326.0085  33.9336  1.70474233 56068"
      },
      "geometry": {
        "type": "Point",
        "coordinates": [
          30.332259548805457,
          -54.581385333709726
        ]
      }
    },
    {
      "type": "Feature",
      "properties": {
        "norad_id": 41860,
        "name": "GSAT0212 (GALILEO 16)",
        "group": "gnss",
        "lat": 6.41652401441484,
        "lon": 110.90922193187245,
        "alt_km": 23215.608431090197,
        "timestamp": "2025-12-04T10:51:50.348850+00:00",
        "meta_object_name": "GSAT0212 (GALILEO 16)",
        "meta_object_id": "2016-069B",
        "meta_epoch": "2025-12-02T16:19:30.905184",
        "meta_mean_motion": 1.70474418,
        "meta_eccentricity": 0.00022458,
        "meta_inclination": 55.3738,
        "meta_ra_of_asc_node": 106.5243,
        "meta_arg_of_pericenter": 34.2432,
        "meta_mean_anomaly": 325.7313,
        "meta_ephemeris_type": 0,
        "meta_classification_type": "U",
        "meta_norad_cat_id": 41860,
        "meta_element_set_no": 999,
        "meta_rev_at_epoch": 5630,
        "meta_bstar": 0,
        "meta_mean_motion_dot": 2.7e-07,
        "meta_mean_motion_ddot": 0,
        "tle_line1": "1 41860U 16069B   25336.68021881  .00000027  00000+0  00000+0 0  9991",
        "tle_line2": "2 41860  55.3738 106.5243 0002245  34.2432 325.7313  1.70474418 56308"
      },
      "geometry": {
        "type": "Point",
        "coordinates": [
          110.90922193187245,
          6.41652401441484
        ]
      }
    },
    {
      "type": "Feature",
      "properties": {
        "norad_id": 41861,
        "name": "GSAT0213 (GALILEO 17)",
        "group": "gnss",
        "lat": 30.275867706018968,
        "lon": -97.30716765277725,
        "alt_km": 23223.215255027357,
        "timestamp": "2025-12-04T10:51:50.348861+00:00",
        "meta_object_name": "GSAT0213 (GALILEO 17)",
        "meta_object_id": "2016-069C",
        "meta_epoch": "2025-12-01T20:59:28.954752",
        "meta_mean_motion": 1.70474717,
        "meta_eccentricity": 0.00020626,
        "meta_inclination": 55.3756,
        "meta_ra_of_asc_node": 106.5542,
        "meta_arg_of_pericenter": 284.0381,
        "meta_mean_anomaly": 75.9044,
        "meta_ephemeris_type": 0,
        "meta_classification_type": "U",
        "meta_norad_cat_id": 41861,
        "meta_element_set_no": 999,
        "meta_rev_at_epoch": 5615,
        "meta_bstar": 0,
        "meta_mean_motion_dot": 3.5e-07,
        "meta_mean_motion_ddot": 0,
        "tle_line1": "1 41861U 16069C   25335.87464068  .00000035  00000+0  00000+0 0  9999",
        "tle_line2": "2 41861  55.3756 106.5542 0002062 284.0381  75.9044  1.70474717 56156"
      },
      "geometry": {
        "type": "Point",
        "coordinates": [
          -97.30716765277725,
          30.275867706018968
        ]
      }
    },
    {
      "type": "Feature",
      "properties": {
        "norad_id": 41862,
        "name": "GSAT0214 (GALILEO 18)",
        "group": "gnss",
        "lat": 40.83644979106709,
        "lon": 143.0950505223898,
        "alt_km": 23218.88982174301,
        "timestamp": "2025-12-04T10:51:50.348872+00:00",
        "meta_object_name": "GSAT0214 (GALILEO 18)",
        "meta_object_id": "2016-069D",
        "meta_epoch": "2025-12-02T14:34:22.700352",
        "meta_mean_motion": 1.70474512,
        "meta_eccentricity": 0.0001109,
        "meta_inclination": 55.3745,
        "meta_ra_of_asc_node": 106.5268,
        "meta_arg_of_pericenter": 291.2976,
        "meta_mean_anomaly": 68.6511,
        "meta_ephemeris_type": 0,
        "meta_classification_type": "U",
        "meta_norad_cat_id": 41862,
        "meta_element_set_no": 999,
        "meta_rev_at_epoch": 5629,
        "meta_bstar": 0,
        "meta_mean_motion_dot": 2.8e-07,
        "meta_mean_motion_ddot": 0,
        "tle_line1": "1 41862U 16069D   25336.60720718  .00000028  00000+0  00000+0 0  9991",
        "tle_line2": "2 41862  55.3745 106.5268 0001109 291.2976  68.6511  1.70474512 56297"
      },
      "geometry": {
        "type": "Point",
        "coordinates": [
          143.0950505223898,
          40.83644979106709
        ]
      }
    },
    {
      "type": "Feature",
      "properties": {
        "norad_id": 42709,
        "name": "SES-15 (WAAS/PRN 133)",
        "group": "gnss",
        "lat": 0.03296000658522953,
        "lon": 107.28002621806169,
        "alt_km": 35788.72707267156,
        "timestamp": "2025-12-04T10:51:50.348884+00:00",
        "meta_object_name": "SES-15 (WAAS/PRN 133)",
        "meta_object_id": "2017-026A",
        "meta_epoch": "2025-12-03T16:34:01.044768",
        "meta_mean_motion": 1.0026701,
        "meta_eccentricity": 3.8e-05,
        "meta_inclination": 0.0204,
        "meta_ra_of_asc_node": 341.0859,
        "meta_arg_of_pericenter": 274.5898,
        "meta_mean_anomaly": 296.434,
        "meta_ephemeris_type": 0,
        "meta_classification_type": "U",
        "meta_norad_cat_id": 42709,
        "meta_element_set_no": 999,
        "meta_rev_at_epoch": 547,
        "meta_bstar": 0,
        "meta_mean_motion_dot": 7.8e-07,
        "meta_mean_motion_ddot": 0,
        "tle_line1": "1 42709U 17026A   25337.69028987  .00000078  00000+0  00000+0 0  9990",
        "tle_line2": "2 42709   0.0204 341.0859 0000380 274.5898 296.4340  1.00267010  5475"
      },
      "geometry": {
        "type": "Point",
        "coordinates": [
          107.28002621806169,
          0.03296000658522953
        ]
      }
    },
    {
      "type": "Feature",
      "properties": {
        "norad_id": 42738,
        "name": "QZS-2 (QZSS/PRN 194)",
        "group": "gnss",
        "lat": 30.974648440254715,
        "lon": 19.85757061409133,
        "alt_km": 38232.56226612657,
        "timestamp": "2025-12-04T10:51:50.348899+00:00",
        "meta_object_name": "QZS-2 (QZSS/PRN 194)",
        "meta_object_id": "2017-028A",
        "meta_epoch": "2025-12-03T14:23:28.548672",
        "meta_mean_motion": 1.00285452,
        "meta_eccentricity": 0.0759039,
        "meta_inclination": 39.729,
        "meta_ra_of_asc_node": 246.0173,
        "meta_arg_of_pericenter": 269.3809,
        "meta_mean_anomaly": 274.5986,
        "meta_ephemeris_type": 0,
        "meta_classification_type": "U",
        "meta_norad_cat_id": 42738,
        "meta_element_set_no": 999,
        "meta_rev_at_epoch": 566,
        "meta_bstar": 0,
        "meta_mean_motion_dot": -1.52e-06,
        "meta_mean_motion_ddot": 0,
        "tle_line1": "1 42738U 17028A   25337.59963598 -.00000152  00000+0  00000+0 0  9993",
        "tle_line2": "2 42738  39.7290 246.0173 0759039 269.3809 274.5986  1.00285452  5664"
      },
      "geometry": {
        "type": "Point",
        "coordinates": [
          19.85757061409133,
          30.974648440254715
        ]
      }
    },
    {
      "type": "Feature",
      "properties": {
        "norad_id": 42917,
        "name": "QZS-3 (QZSS/PRN 199)",
        "group": "gnss",
        "lat": 0.05827447815339265,
        "lon": 3.476948557160531,
        "alt_km": 35787.79504247744,
        "timestamp": "2025-12-04T10:51:50.348913+00:00",
        "meta_object_name": "QZS-3 (QZSS/PRN 199)",
        "meta_object_id": "2017-048A",
        "meta_epoch": "2025-12-03T21:58:38.633088",
        "meta_mean_motion": 1.00275732,
        "meta_eccentricity": 0.0002168,
        "meta_inclination": 0.0728,
        "meta_ra_of_asc_node": 221.1609,
        "meta_arg_of_pericenter": 34.9618,
        "meta_mean_anomaly": 273.5165,
        "meta_ephemeris_type": 0,
        "meta_classification_type": "U",
        "meta_norad_cat_id": 42917,
        "meta_element_set_no": 999,
        "meta_rev_at_epoch": 3030,
        "meta_bstar": 0,
        "meta_mean_motion_dot": -3.31e-06,
        "meta_mean_motion_ddot": 0,
        "tle_line1": "1 42917U 17048A   25337.91572492 -.00000331  00000+0  00000+0 0  9998",
        "tle_line2": "2 42917   0.0728 221.1609 0002168  34.9618 273.5165  1.00275732 30303"
      },
      "geometry": {
        "type": "Point",
        "coordinates": [
          3.476948557160531,
          0.05827447815339265
        ]
      }
    }
  ]
}